NORAD_CAT_ID,OBJECT_NAME,OBJECT_TYPE,EPOCH,MEAN_MOTION,ECCENTRICITY,INCLINATION,RA_OF_ASC_NODE,ARG_OF_PERICENTER,MEAN_ANOMALY,BSTAR,MEAN_MOTION_DOT,MEAN_MOTION_DDOT,TLE_LINE0,TLE_LINE1,TLE_LINE2,SEMIMAJOR_AXIS,PERIOD,APOGEE,PERIGEE,DECAYED
52303.0,STARLINK-3742,PAYLOAD,2024-08-19 10:44:31,15.08847173,0.0001484,53.2167,125.5692,112.2292,247.8858,0.00014318,1.992e-05,0.0,0 STARLINK-3742,1 52303U 22041AU  24232.44759133  .00001992  00000-0  14318-3 0  9992,2 52303  53.2167 125.5692 0001484 112.2292 247.8858 15.08847173130094,6917.858,95.437,540.75,538.697,0.0
52303.0,STARLINK-3742,PAYLOAD,2024-08-20 02:38:23,15.08834822,0.0001509,53.2158,122.5943,116.3487,243.7661,3.7692e-05,3.12e-06,0.0,0 STARLINK-3742,1 52303U 22041AU  24233.10999978  .00000312  00000-0  37692-4 0  9995,2 52303  53.2158 122.5943 0001509 116.3487 243.7661 15.08834822130194,6917.896,95.438,540.805,538.717,0.0
52303.0,STARLINK-3742,PAYLOAD,2024-08-20 20:07:37,15.08845829,0.0001623,53.216,119.3241,132.3548,227.7581,9.5041e-05,1.225e-05,0.0,0 STARLINK-3742,1 52303U 22041AU  24233.83863389  .00001225  00000-0  95041-4 0  9997,2 52303  53.2160 119.3241 0001623 132.3548 227.7581 15.08845829130300,6917.863,95.437,540.85,538.605,0.0
52303.0,STARLINK-3742,PAYLOAD,2024-08-21 02:29:10,15.08848047,0.0001489,53.216,118.1348,117.9854,242.1289,0.00014524,2.025e-05,0.0,0 STARLINK-3742,1 52303U 22041AU  24234.10359302  .00002025  00000-0  14524-3 0  9998,2 52303  53.2160 118.1348 0001489 117.9854 242.1289 15.08848047130349,6917.856,95.437,540.751,538.691,0.0
52303.0,STARLINK-3742,PAYLOAD,2024-08-21 19:58:25,15.08838234,0.0001683,53.2162,114.8635,114.9196,245.1971,7.176e-05,8.54e-06,0.0,0 STARLINK-3742,1 52303U 22041AU  24234.83223867  .00000854  00000-0  71760-4 0  9998,2 52303  53.2162 114.8635 0001683 114.9196 245.1971 15.08838234130455,6917.886,95.438,540.915,538.587,0.0
